NORAD_CAT_ID,OBJECT_NAME,OBJECT_TYPE,EPOCH,MEAN_MOTION,ECCENTRICITY,INCLINATION,RA_OF_ASC_NODE,ARG_OF_PERICENTER,MEAN_ANOMALY,BSTAR,MEAN_MOTION_DOT,MEAN_MOTION_DDOT,TLE_LINE0,TLE_LINE1,TLE_LINE2,SEMIMAJOR_AXIS,PERIOD,APOGEE,PERIGEE,DECAYED
55431.0,STARLINK-5643,PAYLOAD,2023-12-22 07:54:43,14.98320698,0.000265,70.001,322.7851,245.6034,114.4849,-4.3385e-05,-6.1e-06,0.0,0 STARLINK-5643,1 55431U 23014AS  23356.32966930 -.00000610  00000-0 -43385-4 0  9991,2 55431  70.0010 322.7851 0002650 245.6034 114.4849 14.98320698 50470,6950.222,96.108,573.928,570.245,0.0
55431.0,STARLINK-5643,PAYLOAD,2023-12-22 22:19:55,14.98332709,0.0002874,69.9995,321.2693,252.8081,107.2764,-7.9095e-05,-1.037e-05,0.0,0 STARLINK-5643,1 55431U 23014AS  23356.93050356 -.00001037  00000-0 -79095-4 0  9995,2 55431  69.9995 321.2693 0002874 252.8081 107.2764 14.98332709 50569,6950.185,96.107,574.047,570.052,0.0
55431.0,STARLINK-5643,PAYLOAD,2023-12-23 03:08:19,14.98331164,0.0002866,69.9997,320.7637,259.6636,100.42,-6.1227e-06,-1.66e-06,0.0,0 STARLINK-5643,1 55431U 23014AS  23357.13078242 -.00000166  00000-0 -61227-5 0  9993,2 55431  69.9997 320.7637 0002866 259.6636 100.4200 14.98331164 49657,6950.189,96.107,574.046,570.062,0.0
55431.0,STARLINK-5643,PAYLOAD,2023-12-23 07:56:43,14.98336728,0.0002826,69.9998,320.2581,257.7998,102.2844,8.5066e-06,9e-08,0.0,0 STARLINK-5643,1 55431U 23014AS  23357.33105792  .00000009  00000-0  85066-5 0  9997,2 55431  69.9998 320.2581 0002826 257.7998 102.2844 14.98336728 50621,6950.172,96.107,574.001,570.073,0.0
55431.0,STARLINK-5643,PAYLOAD,2023-12-23 22:21:56,14.98326798,0.0002633,70.0001,318.7433,256.3419,103.7447,9.5663e-05,1.049e-05,0.0,0 STARLINK-5643,1 55431U 23014AS  23357.93190139  .00001049  00000-0  95663-4 0  9990,2 55431  70.0001 318.7433 0002633 256.3419 103.7447 14.98326798 50717,6950.203,96.107,573.898,570.238,0.0
55431.0,STARLINK-5643,PAYLOAD,2023-12-24 03:10:20,14.98327984,0.0002604,70.0002,318.2383,256.3703,103.7166,0.00010515,1.162e-05,0.0,0 STARLINK-5643,1 55431U 23014AS  23358.13218074  .00001162  00000-0  10515-3 0  9990,2 55431  70.0002 318.2383 0002604 256.3703 103.7166 14.98327984 49805,6950.199,96.107,573.874,570.254,0.0
55431.0,STARLINK-5643,PAYLOAD,2023-12-24 07:58:44,14.98330644,0.0002571,70.0003,317.7334,255.9047,104.1826,0.00012894,1.446e-05,0.0,0 STARLINK-5643,1 55431U 23014AS  23358.33245850  .00001446  00000-0  12894-3 0  9991,2 55431  70.0003 317.7334 0002571 255.9047 104.1826 14.98330644 50778,6950.191,96.107,573.843,570.269,0.0
55431.0,STARLINK-5643,PAYLOAD,2023-12-24 22:23:56,14.98335678,0.0002483,70.0004,316.2186,255.1146,104.9738,4.9601e-05,4.99e-06,0.0,0 STARLINK-5643,1 55431U 23014AS  23358.93329623  .00000499  00000-0  49601-4 0  9992,2 55431  70.0004 316.2186 0002483 255.1146 104.9738 14.98335678 50864,6950.175,96.107,573.766,570.315,0.0
55431.0,STARLINK-5643,PAYLOAD,2023-12-25 03:12:20,14.9833473,0.0002498,70.0006,315.7135,255.3633,104.7249,6.4105e-05,6.72e-06,0.0,0 STARLINK-5643,1 55431U 23014AS  23359.13357562  .00000672  00000-0  64105-4 0  9997,2 55431  70.0006 315.7135 0002498 255.3633 104.7249 14.98334730 49954,6950.178,96.107,573.779,570.307,0.0
55431.0,STARLINK-5643,PAYLOAD,2023-12-25 06:24:36,14.98344602,0.0002443,70.0006,315.377,257.6672,102.4214,-4.5039e-05,-6.3e-06,0.0,0 STARLINK-5643,1 55431U 23014AS  23359.26709151 -.00000630  00000-0 -45039-4 0  9997,2 55431  70.0006 315.3770 0002443 257.6672 102.4214 14.98344602 50917,6950.148,96.106,573.711,570.315,0.0
55431.0,STARLINK-5643,PAYLOAD,2023-12-25 22:25:57,14.98329466,0.0002372,70.0019,313.6949,234.6047,125.489,-1.3053e-05,-2.49e-06,0.0,0 STARLINK-5643,1 55431U 23014AS  23359.93469804 -.00000249  00000-0 -13053-4 0  9996,2 55431  70.0019 313.6949 0002372 234.6047 125.4890 14.98329466 51010,6950.195,96.107,573.708,570.411,0.0
55431.0,STARLINK-5643,PAYLOAD,2023-12-26 03:14:22,14.9832589,0.0002526,70.0015,313.1906,244.6336,115.4562,-5.7007e-05,-7.73e-06,0.0,0 STARLINK-5643,1 55431U 23014AS  23360.13498133 -.00000773  00000-0 -57007-4 0  9996,2 55431  70.0015 313.1906 0002526 244.6336 115.4562 14.98325890 50108,6950.206,96.107,573.826,570.315,0.0
55431.0,STARLINK-5643,PAYLOAD,2023-12-26 06:26:38,14.98329829,0.0002936,69.9994,312.851,262.8813,97.2012,-5.8756e-05,-7.94e-06,0.0,0 STARLINK-5643,1 55431U 23014AS  23360.26849959 -.00000794  00000-0 -58756-4 0  9991,2 55431  69.9994 312.8510 0002936 262.8813  97.2012 14.98329829 51064,6950.193,96.107,574.099,570.018,0.0
55431.0,STARLINK-5643,PAYLOAD,2023-12-26 22:27:59,14.98327047,0.000275,69.9998,311.167,261.5466,98.5381,-8.3078e-05,-1.084e-05,0.0,0 STARLINK-5643,1 55431U 23014AS  23360.93610275 -.00001084  00000-0 -83078-4 0  9990,2 55431  69.9998 311.1670 0002750 261.5466  98.5381 14.98327047 51165,6950.202,96.107,573.978,570.156,0.0
55431.0,STARLINK-5643,PAYLOAD,2023-12-27 03:16:23,14.98327871,0.0002763,69.9998,310.6621,259.3319,100.7529,-7.3174e-05,-9.66e-06,0.0,0 STARLINK-5643,1 55431U 23014AS  23361.13638225 -.00000966  00000-0 -73174-4 0  9992,2 55431  69.9998 310.6621 0002763 259.3319 100.7529 14.98327871 50255,6950.199,96.107,573.985,570.144,0.0
55431.0,STARLINK-5643,PAYLOAD,2023-12-27 06:28:39,14.98326256,0.0001805,70.0022,310.3289,276.4535,83.6418,-4.5597e-05,-6.37e-06,0.0,0 STARLINK-5643,1 55431U 23014AS  23361.26990549 -.00000637  00000-0 -45597-4 0  9999,2 55431  70.0022 310.3289 0001805 276.4535  83.6418 14.98326256 51218,6950.204,96.107,573.324,570.815,0.0
55431.0,STARLINK-5643,PAYLOAD,2023-12-27 22:30:00,14.98325967,0.0002809,69.9998,308.6422,259.5346,100.5496,4.4859e-05,4.42e-06,0.0,0 STARLINK-5643,1 55431U 23014AS  23361.93750098  .00000442  00000-0  44859-4 0  9998,2 55431  69.9998 308.6422 0002809 259.5346 100.5496 14.98325967 51317,6950.205,96.107,574.023,570.118,0.0
55431.0,STARLINK-5643,PAYLOAD,2023-12-28 03:18:24,14.98325788,0.0002694,69.9999,308.1378,258.8217,101.2639,7.274e-05,7.75e-06,0.0,0 STARLINK-5643,1 55431U 23014AS  23362.13778117  .00000775  00000-0  72740-4 0  9992,2 55431  69.9999 308.1378 0002694 258.8217 101.2639 14.98325788 50401,6950.206,96.107,573.943,570.199,0.0
55431.0,STARLINK-5643,PAYLOAD,2023-12-28 06:30:40,14.9832805,0.0002623,70.0003,307.8021,259.2234,100.863,9.7938e-05,1.076e-05,0.0,0 STARLINK-5643,1 55431U 23014AS  23362.27129947  .00001076  00000-0  97938-4 0  9999,2 55431  70.0003 307.8021 0002623 259.2234 100.8630 14.98328050 51364,6950.199,96.107,573.887,570.241,0.0
55431.0,STARLINK-5643,PAYLOAD,2023-12-28 22:32:00,14.98327721,0.0002685,70.0004,306.1205,251.1474,108.9394,7.2117e-05,7.68e-06,0.0,0 STARLINK-5643,1 55431U 23014AS  23362.93890024  .00000768  00000-0  72117-4 0  9992,2 55431  70.0004 306.1205 0002685 251.1474 108.9394 14.98327721 51467,6950.2,96.107,573.931,570.199,0.0
55431.0,STARLINK-5643,PAYLOAD,2023-12-29 03:20:25,14.98329225,0.0002686,70.0003,305.6151,252.3756,107.7109,4.2379e-05,4.13e-06,0.0,0 STARLINK-5643,1 55431U 23014AS  23363.13918043  .00000413  00000-0  42379-4 0  9991,2 55431  70.0003 305.6151 0002686 252.3756 107.7109 14.98329225 50558,6950.195,96.107,573.927,570.193,0.0
55431.0,STARLINK-5643,PAYLOAD,2023-12-29 06:32:41,14.98329741,0.0002656,70.0003,305.2775,253.3766,106.7102,5.062e-05,5.11e-06,0.0,0 STARLINK-5643,1 55431U 23014AS  23363.27270007  .00000511  00000-0  50620-4 0  9994,2 55431  70.0003 305.2775 0002656 253.3766 106.7102 14.98329741 51517,6950.194,96.107,573.905,570.213,0.0
55431.0,STARLINK-5643,PAYLOAD,2023-12-29 22:34:01,14.98330643,0.000262,70.0003,303.5942,255.5312,104.5556,1.2143e-05,5.2e-07,0.0,0 STARLINK-5643,1 55431U 23014AS  23363.94030026  .00000052  00000-0  12143-4 0  9991,2 55431  70.0003 303.5942 0002620 255.5312 104.5556 14.98330643 51619,6950.191,96.107,573.877,570.235,0.0
55431.0,STARLINK-5643,PAYLOAD,2023-12-30 03:22:25,14.98332895,0.0002581,70.0003,303.0893,253.2147,106.8729,3.9429e-05,3.78e-06,0.0,0 STARLINK-5643,1 55431U 23014AS  23364.14057779  .00000378  00000-0  39429-4 0  9995,2 55431  70.0003 303.0893 0002581 253.2147 106.8729 14.98332895 50703,6950.184,96.107,573.843,570.255,0.0
55431.0,STARLINK-5643,PAYLOAD,2023-12-30 06:34:41,14.98333047,0.0002678,70.0003,302.7512,261.5881,98.4974,7.8301e-05,8.41e-06,0.0,0 STARLINK-5643,1 55431U 23014AS  23364.27409689  .00000841  00000-0  78301-4 0  9997,2 55431  70.0003 302.7512 0002678 261.5881  98.4974 14.98333047 51665,6950.183,96.107,573.91,570.187,0.0
55431.0,STARLINK-5643,PAYLOAD,2023-12-30 22:36:02,14.98328622,0.000246,70.0003,301.0681,259.8484,100.2398,5.7222e-06,-2.5e-07,0.0,0 STARLINK-5643,1 55431U 23014AS  23364.94170051 -.00000025  00000-0  57222-5 0  9994,2 55431  70.0003 301.0681 0002460 259.8484 100.2398 14.98328622 51768,6950.197,96.107,573.772,570.352,0.0
55431.0,STARLINK-5643,PAYLOAD,2023-12-31 03:24:27,14.98327043,0.0002522,70.0004,300.5643,256.7152,103.3725,-2.1266e-05,-3.47e-06,0.0,0 STARLINK-5643,1 55431U 23014AS  23365.14198225 -.00000347  00000-0 -21266-4 0  9996,2 55431  70.0004 300.5643 0002522 256.7152 103.3725 14.98327043 50851,6950.202,96.107,573.82,570.314,0.0
55431.0,STARLINK-5643,PAYLOAD,2023-12-31 22:38:03,14.98331268,0.0002591,70.0,298.5431,260.7387,99.3479,-1.3148e-05,-2.5e-06,0.0,0 STARLINK-5643,1 55431U 23014AS  23365.94309963 -.00000250  00000-0 -13148-4 0  9990,2 55431  70.0000 298.5431 0002591 260.7387  99.3479 14.98331268 51911,6950.189,96.107,573.855,570.253,0.0
55431.0,STARLINK-5643,PAYLOAD,2024-01-01 03:26:27,14.98331557,0.0002583,70.0003,298.0395,257.6772,102.4098,-1.0529e-05,-2.19e-06,0.0,0 STARLINK-5643,1 55431U 23014AS  24001.14337913 -.00000219  00000-0 -10529-4 0  9991,2 55431  70.0003 298.0395 0002583 257.6772 102.4098 14.98331557 51006,6950.188,96.107,573.848,570.258,0.0
55431.0,STARLINK-5643,PAYLOAD,2024-01-01 05:02:36,14.98331896,0.0002707,69.9998,297.8692,271.3514,88.7335,-9.0462e-06,-2.01e-06,0.0,0 STARLINK-5643,1 55431U 23014AS  24001.21013946 -.00000201  00000-0 -90462-5 0  9992,2 55431  69.9998 297.8692 0002707 271.3514  88.7335 14.98331896 51958,6950.187,96.107,573.933,570.171,0.0
